NORAD_CAT_ID,OBJECT_NAME,OBJECT_TYPE,EPOCH,MEAN_MOTION,ECCENTRICITY,INCLINATION,RA_OF_ASC_NODE,ARG_OF_PERICENTER,MEAN_ANOMALY,BSTAR,MEAN_MOTION_DOT,MEAN_MOTION_DDOT,TLE_LINE0,TLE_LINE1,TLE_LINE2,SEMIMAJOR_AXIS,PERIOD,APOGEE,PERIGEE,DECAYED
56498.0,STARLINK-5522,PAYLOAD,2024-07-15 05:55:26,14.98333555,0.0003147,69.9994,183.375,267.7707,92.3092,8.3722e-05,9.06e-06,0.0,0 STARLINK-5522,1 56498U 23064BC  24197.24683366  .00000906  00000-0  83722-4 0  9999,2 56498  69.9994 183.3750 0003147 267.7707  92.3092 14.98333555 66359,6950.182,96.107,574.234,569.86,0.0
56498.0,STARLINK-5522,PAYLOAD,2024-07-15 09:07:42,14.98334683,0.0003137,69.9994,183.0383,267.7566,92.3233,9.3454e-05,1.022e-05,0.0,0 STARLINK-5522,1 56498U 23064BC  24197.38035243  .00001022  00000-0  93454-4 0  9992,2 56498  69.9994 183.0383 0003137 267.7566  92.3233 14.98334683 66013,6950.178,96.107,574.224,569.863,0.0
56498.0,STARLINK-5522,PAYLOAD,2024-07-16 05:57:27,14.98334769,0.0003083,69.9996,180.8503,267.9438,92.1368,4.1446e-06,-4.4e-07,0.0,0 STARLINK-5522,1 56498U 23064BC  24198.24823258 -.00000044  00000-0  41446-5 0  9998,2 56498  69.9996 180.8503 0003083 267.9438  92.1368 14.98334769 66500,6950.178,96.107,574.186,569.9,0.0
56498.0,STARLINK-5522,PAYLOAD,2024-07-16 09:09:43,14.98335432,0.0003076,69.9996,180.5136,268.0385,92.0422,1.1449e-05,4.4e-07,0.0,0 STARLINK-5522,1 56498U 23064BC  24198.38175155  .00000044  00000-0  11449-4 0  9997,2 56498  69.9996 180.5136 0003076 268.0385  92.0422 14.98335432 66164,6950.176,96.107,574.179,569.903,0.0
56498.0,STARLINK-5522,PAYLOAD,2024-07-17 09:11:43,14.98339467,0.0002951,69.9999,177.9893,267.3485,92.7336,8.9134e-05,9.71e-06,0.0,0 STARLINK-5522,1 56498U 23064BC  24199.38314372  .00000971  00000-0  89134-4 0  9999,2 56498  69.9999 177.9893 0002951 267.3485  92.7336 14.98339467 66670,6950.164,96.106,574.08,569.978,0.0
56498.0,STARLINK-5522,PAYLOAD,2024-07-17 15:36:16,14.98331006,0.0002908,70.0002,177.316,268.2868,91.7958,6.2895e-06,-1.8e-07,0.0,0 STARLINK-5522,1 56498U 23064BC  24199.65019113 -.00000018  00000-0  62895-5 0  9993,2 56498  70.0002 177.3160 0002908 268.2868  91.7958 14.98331006 66711,6950.19,96.107,574.076,570.034,0.0
56498.0,STARLINK-5522,PAYLOAD,2024-07-18 04:25:21,14.98324295,0.0002833,70.0003,175.9696,270.1956,89.8878,-3.2879e-05,-4.85e-06,0.0,0 STARLINK-5522,1 56498U 23064BC  24200.18427723 -.00000485  00000-0 -32879-4 0  9991,2 56498  70.0003 175.9696 0002833 270.1956  89.8878 14.98324295 66796,6950.211,96.107,574.045,570.107,0.0
56498.0,STARLINK-5522,PAYLOAD,2024-07-18 07:37:37,14.98326597,0.0002806,70.0004,175.6331,269.9139,90.1698,-7.9023e-06,-1.87e-06,0.0,0 STARLINK-5522,1 56498U 23064BC  24200.31779531 -.00000187  00000-0 -79023-5 0  9995,2 56498  70.0004 175.6331 0002806 269.9139  90.1698 14.98326597 66454,6950.203,96.107,574.019,570.118,0.0
56498.0,STARLINK-5522,PAYLOAD,2024-07-18 15:38:17,14.98329588,0.0002819,70.0004,174.7914,271.1067,88.9769,1.2527e-05,5.7e-07,0.0,0 STARLINK-5522,1 56498U 23064BC  24200.65159346  .00000057  00000-0  12527-4 0  9997,2 56498  70.0004 174.7914 0002819 271.1067  88.9769 14.98329588 66862,6950.194,96.107,574.018,570.1,0.0
56498.0,STARLINK-5522,PAYLOAD,2024-07-19 07:39:37,14.98335952,0.0002778,70.0005,173.1086,270.1845,89.8995,2.226e-05,1.73e-06,0.0,0 STARLINK-5522,1 56498U 23064BC  24201.31918813  .00000173  00000-0  22260-4 0  9997,2 56498  70.0005 173.1086 0002778 270.1845  89.8995 14.98335952 66967,6950.174,96.107,573.97,570.109,0.0
56498.0,STARLINK-5522,PAYLOAD,2024-07-20 04:29:23,14.98323436,0.0002902,70.0001,170.9204,270.2697,89.813,3.0644e-05,2.73e-06,0.0,0 STARLINK-5522,1 56498U 23064BC  24202.18707614  .00000273  00000-0  30644-4 0  9994,2 56498  70.0001 170.9204 0002902 270.2697  89.8130 14.98323436 67095,6950.213,96.107,574.095,570.061,0.0
56498.0,STARLINK-5522,PAYLOAD,2024-07-20 07:41:39,14.98326459,0.0002886,70.0002,170.5839,270.3013,89.7816,6.2438e-05,6.52e-06,0.0,0 STARLINK-5522,1 56498U 23064BC  24202.32059374  .00000652  00000-0  62438-4 0  9990,2 56498  70.0002 170.5839 0002886 270.3013  89.7816 14.98326459 66750,6950.204,96.107,574.075,570.063,0.0
56498.0,STARLINK-5522,PAYLOAD,2024-07-20 22:06:51,14.98332367,0.0002874,70.0003,169.068,271.8695,88.2134,4.6182e-05,4.58e-06,0.0,0 STARLINK-5522,1 56498U 23064BC  24202.92143119  .00000458  00000-0  46182-4 0  9999,2 56498  70.0003 169.0680 0002874 271.8695  88.2134 14.98332367 66849,6950.186,96.107,574.048,570.053,0.0
56498.0,STARLINK-5522,PAYLOAD,2024-07-21 04:31:23,14.98333832,0.0002964,70.0001,168.395,271.3127,88.7692,2.0767e-05,1.55e-06,0.0,0 STARLINK-5522,1 56498U 23064BC  24203.18847041  .00000155  00000-0  20767-4 0  9998,2 56498  70.0001 168.3950 0002964 271.3127  88.7692 14.98333832 67241,6950.181,96.107,574.106,569.986,0.0
56498.0,STARLINK-5522,PAYLOAD,2024-07-21 07:43:39,14.98335468,0.000295,70.0001,168.0582,271.4376,88.6445,4.0614e-05,3.92e-06,0.0,0 STARLINK-5522,1 56498U 23064BC  24203.32198858  .00000392  00000-0  40614-4 0  9995,2 56498  70.0001 168.0582 0002950 271.4376  88.6445 14.98335468 66905,6950.176,96.107,574.091,569.991,0.0
56498.0,STARLINK-5522,PAYLOAD,2024-07-21 22:08:52,14.98328437,0.0002954,70.0002,166.5435,271.4251,88.657,4.0757e-05,3.93e-06,0.0,0 STARLINK-5522,1 56498U 23064BC  24203.92283290  .00000393  00000-0  40757-4 0  9995,2 56498  70.0002 166.5435 0002954 271.4251  88.6570 14.98328437 66998,6950.198,96.107,574.116,570.01,0.0
56498.0,STARLINK-5522,PAYLOAD,2024-07-22 04:33:25,14.98328686,0.0002961,70.0001,165.8702,271.4261,88.6558,4.0004e-05,3.84e-06,0.0,0 STARLINK-5522,1 56498U 23064BC  24204.18987291  .00000384  00000-0  40004-4 0  9991,2 56498  70.0001 165.8702 0002961 271.4261  88.6558 14.98328686 67392,6950.197,96.107,574.12,570.004,0.0
56498.0,STARLINK-5522,PAYLOAD,2024-07-22 07:45:40,14.98331447,0.0002952,70.0002,165.5336,271.5307,88.5514,6.8747e-05,7.27e-06,0.0,0 STARLINK-5522,1 56498U 23064BC  24204.32339045  .00000727  00000-0  68747-4 0  9990,2 56498  70.0002 165.5336 0002952 271.5307  88.5514 14.98331447 67058,6950.188,96.107,574.105,570.002,0.0
56498.0,STARLINK-5522,PAYLOAD,2024-07-22 22:10:53,14.98334297,0.0002905,70.0002,164.0188,271.7518,88.3308,5.17e-05,5.24e-06,0.0,0 STARLINK-5522,1 56498U 23064BC  24204.92422843  .00000524  00000-0  51700-4 0  9991,2 56498  70.0002 164.0188 0002905 271.7518  88.3308 14.98334297 67146,6950.18,96.107,574.064,570.026,0.0
56498.0,STARLINK-5522,PAYLOAD,2024-07-23 04:35:25,14.98337659,0.0002861,70.0001,163.3457,271.3956,88.6876,8.7464e-05,9.51e-06,0.0,0 STARLINK-5522,1 56498U 23064BC  24205.19126481  .00000951  00000-0  87464-4 0  9990,2 56498  70.0001 163.3457 0002861 271.3956  88.6876 14.98337659 67541,6950.169,96.107,574.023,570.046,0.0
56498.0,STARLINK-5522,PAYLOAD,2024-07-23 14:12:14,14.98343799,0.0002277,70.0032,162.3349,277.1534,82.9366,-0.0002861,-3.506e-05,0.0,0 STARLINK-5522,1 56498U 23064BC  24205.59182899 -.00003506  00000-0 -28610-3 0  9997,2 56498  70.0032 162.3349 0002277 277.1534  82.9366 14.98343799 67241,6950.15,96.106,573.598,570.433,0.0
56498.0,STARLINK-5522,PAYLOAD,2024-07-23 20:36:46,14.98324842,0.0002588,70.0004,161.6643,266.4902,93.5961,-1.0576e-05,-2.19e-06,0.0,0 STARLINK-5522,1 56498U 23064BC  24205.85887495 -.00000219  00000-0 -10576-4 0  9991,2 56498  70.0004 161.6643 0002588 266.4902  93.5961 14.98324842 67645,6950.209,96.107,573.873,570.275,0.0
56498.0,STARLINK-5522,PAYLOAD,2024-07-24 06:13:35,14.98320936,0.0002708,70.0003,160.6541,267.0377,93.0472,-5.1121e-05,-7.03e-06,0.0,0 STARLINK-5522,1 56498U 23064BC  24206.25944068 -.00000703  00000-0 -51121-4 0  9995,2 56498  70.0003 160.6541 0002708 267.0377  93.0472 14.98320936 67346,6950.221,96.108,573.968,570.204,0.0
56498.0,STARLINK-5522,PAYLOAD,2024-07-25 04:39:27,14.98341353,0.0002743,70.0004,158.2979,262.1761,97.9087,8.1221e-05,8.77e-06,0.0,0 STARLINK-5522,1 56498U 23064BC  24207.19406278  .00000877  00000-0  81221-4 0  9999,2 56498  70.0004 158.2979 0002743 262.1761  97.9087 14.98341353 67843,6950.158,96.106,573.929,570.116,0.0
56498.0,STARLINK-5522,PAYLOAD,2024-07-25 06:15:35,14.98341576,0.0002685,70.0005,158.1289,267.9578,92.1273,9.9025e-05,1.089e-05,0.0,0 STARLINK-5522,1 56498U 23064BC  24207.26082247  .00001089  00000-0  99025-4 0  9990,2 56498  70.0005 158.1289 0002685 267.9578  92.1273 14.98341576 67493,6950.157,96.106,573.888,570.156,0.0
56498.0,STARLINK-5522,PAYLOAD,2024-07-25 22:16:56,14.98321818,0.0002834,70.0004,156.4442,273.3202,86.7632,0.0001328,1.492e-05,0.0,0 STARLINK-5522,1 56498U 23064BC  24207.92843237  .00001492  00000-0  13280-3 0  9993,2 56498  70.0004 156.4442 0002834 273.3202  86.7632 14.98321818 67591,6950.218,96.108,574.053,570.114,0.0
56498.0,STARLINK-5522,PAYLOAD,2024-07-26 04:41:28,14.98324612,0.0002736,70.0005,155.7716,268.0407,92.0438,0.00011036,1.224e-05,0.0,0 STARLINK-5522,1 56498U 23064BC  24208.19547180  .00001224  00000-0  11036-3 0  9991,2 56498  70.0005 155.7716 0002736 268.0407  92.0438 14.98324612 67990,6950.21,96.107,573.976,570.173,0.0
56498.0,STARLINK-5522,PAYLOAD,2024-07-26 06:17:36,14.98328364,0.0002977,69.9999,155.6023,273.0374,87.0444,0.00014912,1.687e-05,0.0,0 STARLINK-5522,1 56498U 23064BC  24208.26222851  .00001687  00000-0  14912-3 0  9993,2 56498  69.9999 155.6023 0002977 273.0374  87.0444 14.98328364 67646,6950.198,96.107,574.132,569.994,0.0
56498.0,STARLINK-5522,PAYLOAD,2024-07-26 14:18:16,14.98331748,0.0003034,69.9999,154.7609,262.1004,97.9811,0.00010358,1.143e-05,0.0,0 STARLINK-5522,1 56498U 23064BC  24208.59602633  .00001143  00000-0  10358-3 0  9996,2 56498  69.9999 154.7609 0003034 262.1004  97.9811 14.98331748 68054,6950.187,96.107,574.161,569.944,0.0
56498.0,STARLINK-5522,PAYLOAD,2024-07-27 06:19:36,14.98343659,0.0003069,70.0,153.0787,271.1619,88.9189,-2.2211e-06,-1.2e-06,0.0,0 STARLINK-5522,1 56498U 23064BC  24209.26361903 -.00000120  00000-0 -22211-5 0  9992,2 56498  70.0000 153.0787 0003069 271.1619  88.9189 14.98343659 68152,6950.151,96.106,574.149,569.883,0.0
